{"type": "FeatureCollection", "features": [ {"type": "Feature", "properties": {"norad_id": 32260, "name": "GPS BIIRM-4 (PRN 15)", "group": "gnss", "lat": 50.14140957428262, "lon": -153.32196555425742, "alt_km": 19774.265073227114, "timestamp": "2025-12-25T20:42:38.931779+00:00", "meta": {"OBJECT_NAME": "GPS BIIRM-4 (PRN 15)", "OBJECT_ID": "2007-047A", "EPOCH": "2025-12-23T05:22:00.882048", "MEAN_MOTION": 2.00564099, "ECCENTRICITY": 0.01640403, "INCLINATION": 53.9621, "RA_OF_ASC_NODE": 87.3254, "ARG_OF_PERICENTER": 85.3777, "MEAN_ANOMALY": 276.5133, "EPHEMERIS_TYPE": 0, "CLASSIFICATION_TYPE": "U", "NORAD_CAT_ID": 32260, "ELEMENT_SET_NO": 999, "REV_AT_EPOCH": 13328, "BSTAR": 0, "MEAN_MOTION_DOT": -6e-08, "MEAN_MOTION_DDOT": 0}, "tle": {"line1": "1 32260U 07047A   25357.22362132 -.00000006  00000+0  00000+0 0  9999", "line2": "2 32260  53.9621  87.3254 0164040  85.3777 276.5133  2.00564099133281"}}, "geometry": {"type": "Point", "coordinates": [-153.32196555425742, 50.14140957428262]}}, {"type": "Feature", "properties": {"norad_id": 32275, "name": "COSMOS 2433 (720)", "group": "gnss", "lat": 63.6105371403806, "lon": 27.392600606194687, "alt_km": 19135.904584977794, "timestamp": "2025-12-25T20:42:38.931790+00:00", "meta": {"OBJECT_NAME": "COSMOS 2433 (720)", "OBJECT_ID": "2007-052A", "EPOCH": "2025-12-24T08:26:16.805760", "MEAN_MOTION": 2.13104186, "ECCENTRICITY": 0.00051043, "INCLINATION": 65.677, "RA_OF_ASC_NODE": 321.8159, "ARG_OF_PERICENTER": 257.0223, "MEAN_ANOMALY": 102.9214, "EPHEMERIS_TYPE": 0, "CLASSIFICATION_TYPE": "U", "NORAD_CAT_ID": 32275, "ELEMENT_SET_NO": 999, "REV_AT_EPOCH": 14133, "BSTAR": 0, "MEAN_MOTION_DOT": -3.3e-07, "MEAN_MOTION_DDOT": 0}, "tle": {"line1": "1 32275U 07052A   25358.35158340 -.00000033  00000+0  00000+0 0  9990", "line2": "2 32275  65.6770 321.8159 0005104 257.0223 102.9214  2.13104186141339"}}, "geometry": {"type": "Point", "coordinates": [27.392600606194687, 63.6105371403806]}}, {"type": "Feature", "properties": {"norad_id": 32276, "name": "COSMOS 2432 (719)", "group": "gnss", "lat": 21.727215526600677, "lon": -27.755130629243723, "alt_km": 19117.140367127868, "timestamp": "2025-12-25T20:42:38.931802+00:00", "meta": {"OBJECT_NAME": "COSMOS 2432 (719)", "OBJECT_ID": "2007-052B", "EPOCH": "2025-12-24T04:32:38.772960", "MEAN_MOTION": 2.13103387, "ECCENTRICITY": 0.00113791, "INCLINATION": 65.6931, "RA_OF_ASC_NODE": 321.9458, "ARG_OF_PERICENTER": 314.7871, "MEAN_ANOMALY": 225.1187, "EPHEMERIS_TYPE": 0, "CLASSIFICATION_TYPE": "U", "NORAD_CAT_ID": 32276, "ELEMENT_SET_NO": 999, "REV_AT_EPOCH": 14135, "BSTAR": 0, "MEAN_MOTION_DOT": -3.3e-07, "MEAN_MOTION_DDOT": 0}, "tle": {"line1": "1 32276U 07052B   25358.18933765 -.00000033  00000+0  00000+0 0  9994", "line2": "2 32276  65.6931 321.9458 0011379 314.7871 225.1187  2.13103387141354"}}, "geometry": {"type": "Point", "coordinates": [-27.755130629243723, 21.727215526600677]}}, {"type": "Feature", "properties": {"norad_id": 32384, "name": "GPS BIIRM-5 (PRN 29)", "group": "gnss", "lat": -43.56332060637953, "lon": 142.510962585925, "alt_km": 20166.253077449346, "timestamp": "2025-12-25T20:42:38.931813+00:00", "meta": {"OBJECT_NAME": "GPS BIIRM-5 (PRN 29)", "OBJECT_ID": "2007-062A", "EPOCH": "2025-12-25T01:49:33.945312", "MEAN_MOTION": 2.00549305, "ECCENTRICITY": 0.00313889, "INCLINATION": 55.1716, "RA_OF_ASC_NODE": 281.1512, "ARG_OF_PERICENTER": 162.3176, "MEAN_ANOMALY": 226.2935, "EPHEMERIS_TYPE": 0, "CLASSIFICATION_TYPE": "U", "NORAD_CAT_ID": 32384, "ELEMENT_SET_NO": 999, "REV_AT_EPOCH": 13202, "BSTAR": 0, "MEAN_MOTION_DOT": -2.4e-07, "MEAN_MOTION_DDOT": 0}, "tle": {"line1": "1 32384U 07062A   25359.07608733 -.00000024  00000+0  00000+0 0  9998", "line2": "2 32384  55.1716 281.1512 0031388 162.3176 226.2935  2.00549305132021"}}, "geometry": {"type": "Point", "coordinates": [142.510962585925, -43.56332060637953]}}, {"type": "Feature", "properties": {"norad_id": 32393, "name": "COSMOS 2434 (721)", "group": "gnss", "lat": -26.87130566315764, "lon": -176.35529358373995, "alt_km": 19136.314950158925, "timestamp": "2025-12-25T20:42:38.931830+00:00", "meta": {"OBJECT_NAME": "COSMOS 2434 (721)", "OBJECT_ID": "2007-065A", "EPOCH": "2025-12-25T04:50:38.690880", "MEAN_MOTION": 2.13101426, "ECCENTRICITY": 0.00048155, "INCLINATION": 64.316, "RA_OF_ASC_NODE": 197.7825, "ARG_OF_PERICENTER": 72.3335, "MEAN_ANOMALY": 110.4789, "EPHEMERIS_TYPE": 0, "CLASSIFICATION_TYPE": "U", "NORAD_CAT_ID": 32393, "ELEMENT_SET_NO": 999, "REV_AT_EPOCH": 14006, "BSTAR": 0, "MEAN_MOTION_DOT": 1.04e-06, "MEAN_MOTION_DDOT": 0}, "tle": {"line1": "1 32393U 07065A   25359.20183670  .00000104  00000+0  00000+0 0  9992", "line2": "2 32393  64.3160 197.7825 0004815  72.3335 110.4789  2.13101426140063"}}, "geometry": {"type": "Point", "coordinates": [-176.35529358373995, -26.87130566315764]}}, {"type": "Feature", "properties": {"norad_id": 32395, "name": "COSMOS 2436 (723)", "group": "gnss", "lat": 61.31426316477743, "lon": -43.752317087132916, "alt_km": 19125.535400518198, "timestamp": "2025-12-25T20:42:38.931841+00:00", "meta": {"OBJECT_NAME": "COSMOS 2436 (723)", "OBJECT_ID": "2007-065C", "EPOCH": "2025-12-25T06:17:47.253408", "MEAN_MOTION": 2.1310019, "ECCENTRICITY": 0.00178263, "INCLINATION": 64.3246, "RA_OF_ASC_NODE": 197.8509, "ARG_OF_PERICENTER": 10.3034, "MEAN_ANOMALY": 351.9576, "EPHEMERIS_TYPE": 0, "CLASSIFICATION_TYPE": "U", "NORAD_CAT_ID": 32395, "ELEMENT_SET_NO": 999, "REV_AT_EPOCH": 14002, "BSTAR": 0, "MEAN_MOTION_DOT": 1.04e-06, "MEAN_MOTION_DDOT": 0}, "tle": {"line1": "1 32395U 07065C   25359.26235247  .00000104  00000+0  00000+0 0  9998", "line2": "2 32395  64.3246 197.8509 0017826  10.3034 351.9576  2.13100190140023"}}, "geometry": {"type": "Point", "coordinates": [-43.752317087132916, 61.31426316477743]}}, {"type": "Feature", "properties": {"norad_id": 32711, "name": "GPS BIIRM-6 (PRN 07)", "group": "gnss", "lat": 16.929985391183067, "lon": -35.71779328131364, "alt_km": 20132.75056271681, "timestamp": "2025-12-25T20:42:38.931853+00:00", "meta": {"OBJECT_NAME": "GPS BIIRM-6 (PRN 07)", "OBJECT_ID": "2008-012A", "EPOCH": "2025-12-24T15:20:51.280224", "MEAN_MOTION": 2.00566104, "ECCENTRICITY": 0.0202975, "INCLINATION": 54.4784, "RA_OF_ASC_NODE": 156.8979, "ARG_OF_PERICENTER": 245.0885, "MEAN_ANOMALY": 112.7759, "EPHEMERIS_TYPE": 0, "CLASSIFICATION_TYPE": "U", "NORAD_CAT_ID": 32711, "ELEMENT_SET_NO": 999, "REV_AT_EPOCH": 13025, "BSTAR": 0, "MEAN_MOTION_DOT": 9.3e-07, "MEAN_MOTION_DDOT": 0}, "tle": {"line1": "1 32711U 08012A   25358.63948241  .00000093  00000+0  00000+0 0  9995", "line2": "2 32711  54.4784 156.8979 0202975 245.0885 112.7759  2.00566104130257"}}, "geometry": {"type": "Point", "coordinates": [-35.71779328131364, 16.929985391183067]}}, {"type": "Feature", "properties": {"norad_id": 35752, "name": "GPS BIIRM-8 (PRN 05)", "group": "gnss", "lat": -1.4284670903549568, "lon": -144.76001438807268, "alt_km": 20205.7584216367, "timestamp": "2025-12-25T20:42:38.931864+00:00", "meta": {"OBJECT_NAME": "GPS BIIRM-8 (PRN 05)", "OBJECT_ID": "2009-043A", "EPOCH": "2025-12-25T01:50:05.502048", "MEAN_MOTION": 2.00564872, "ECCENTRICITY": 0.00515726, "INCLINATION": 56.0995, "RA_OF_ASC_NODE": 34.2967, "ARG_OF_PERICENTER": 81.7083, "MEAN_ANOMALY": 251.5447, "EPHEMERIS_TYPE": 0, "CLASSIFICATION_TYPE": "U", "NORAD_CAT_ID": 35752, "ELEMENT_SET_NO": 999, "REV_AT_EPOCH": 11986, "BSTAR": 0, "MEAN_MOTION_DOT": -5.1e-07, "MEAN_MOTION_DDOT": 0}, "tle": {"line1": "1 35752U 09043A   25359.07645257 -.00000051  00000+0  00000+0 0  9993", "line2": "2 35752  56.0995  34.2967 0051572  81.7083 251.5447  2.00564872119863"}}, "geometry": {"type": "Point", "coordinates": [-144.76001438807268, -1.4284670903549568]}}, {"type": "Feature", "properties": {"norad_id": 36111, "name": "COSMOS 2456 (730)", "group": "gnss", "lat": 46.22185141806307, "lon": -132.3287261843082, "alt_km": 19133.537498406007, "timestamp": "2025-12-25T20:42:38.931876+00:00", "meta": {"OBJECT_NAME": "COSMOS 2456 (730)", "OBJECT_ID": "2009-070A", "EPOCH": "2025-12-24T09:16:29.146080", "MEAN_MOTION": 2.13103739, "ECCENTRICITY": 0.00036447, "INCLINATION": 64.9059, "RA_OF_ASC_NODE": 76.94, "ARG_OF_PERICENTER": 294.9884, "MEAN_ANOMALY": 139.4332, "EPHEMERIS_TYPE": 0, "CLASSIFICATION_TYPE": "U", "NORAD_CAT_ID": 36111, "ELEMENT_SET_NO": 999, "REV_AT_EPOCH": 12470, "BSTAR": 0, "MEAN_MOTION_DOT": -1e-08, "MEAN_MOTION_DDOT": 0}, "tle": {"line1": "1 36111U 09070A   25358.38644845 -.00000001  00000+0  00000+0 0  9993", "line2": "2 36111  64.9059  76.9400 0003644 294.9884 139.4332  2.13103739124702"}}, "geometry": {"type": "Point", "coordinates": [-132.3287261843082, 46.22185141806307]}}, {"type": "Feature", "properties": {"norad_id": 36112, "name": "COSMOS 2457 (733)", "group": "gnss", "lat": -61.58699925429661, "lon": -43.30982319580436, "alt_km": 19137.10764144839, "timestamp": "2025-12-25T20:42:38.931887+00:00", "meta": {"OBJECT_NAME": "COSMOS 2457 (733)", "OBJECT_ID": "2009-070B", "EPOCH": "2025-12-23T15:49:23.328192", "MEAN_MOTION": 2.13101141, "ECCENTRICITY": 0.00045057, "INCLINATION": 64.8913, "RA_OF_ASC_NODE": 76.812, "ARG_OF_PERICENTER": 162.7292, "MEAN_ANOMALY": 202.8862, "EPHEMERIS_TYPE": 0, "CLASSIFICATION_TYPE": "U", "NORAD_CAT_ID": 36112, "ELEMENT_SET_NO": 999, "REV_AT_EPOCH": 12469, "BSTAR": 0, "MEAN_MOTION_DOT": -1e-08, "MEAN_MOTION_DDOT": 0}, "tle": {"line1": "1 36112U 09070B   25357.65929778 -.00000001  00000+0  00000+0 0  9994", "line2": "2 36112  64.8913  76.8120 0004505 162.7292 202.8862  2.13101141124697"}}, "geometry": {"type": "Point", "coordinates": [-43.30982319580436, -61.58699925429661]}}]}